COMMENT,ORIGINATOR,NORAD_CAT_ID,OBJECT_NAME,OBJECT_TYPE,CLASSIFICATION_TYPE,INTLDES,EPOCH,EPOCH_MICROSECONDS,MEAN_MOTION,ECCENTRICITY,INCLINATION,RA_OF_ASC_NODE,ARG_OF_PERICENTER,MEAN_ANOMALY,EPHEMERIS_TYPE,ELEMENT_SET_NO,REV_AT_EPOCH,BSTAR,MEAN_MOTION_DOT,MEAN_MOTION_DDOT,FILE,TLE_LINE0,TLE_LINE1,TLE_LINE2,OBJECT_ID,OBJECT_NUMBER,SEMIMAJOR_AXIS,PERIOD,APOGEE,PERIGEE,DECAYED
"GENERATED VIA SPACETRACK.ORG API","18 SPCS","55932","STARLINK-5848","PAYLOAD","U","23037U","2023-11-01 07:51:02","11104","14.98325876","0.0002756","70","271.0187","266.4606","93.6238","0","999","3575","0.00022617","0.00002606","0","4064888","0 STARLINK-5848","1 55932U 23037U   23305.32710661  .00002606  00000-0  22617-3 0  9993","2 55932  70.0000 271.0187 0002756 266.4606  93.6238 14.98325876 35753","2023-037U","55932","6950.206","96.107","573.986","570.155","0"
"GENERATED VIA SPACETRACK.ORG API","18 SPCS","55673","STARLINK-5463","PAYLOAD","U","23021AX","2023-11-01 08:01:24","561984","14.98292557","0.0002715","70","171.1065","274.6669","85.418","0","999","4026","0.00065668","0.00007743","0","4064570","0 STARLINK-5463","1 55673U 23021AX  23305.33431206  .00007743  00000-0  65668-3 0  9994","2 55673  70.0000 171.1065 0002715 274.6669  85.4180 14.98292557 40261","2023-021AX","55673","6950.309","96.109","574.061","570.287","0"
"GENERATED VIA SPACETRACK.ORG API","18 SPCS","55670","STARLINK-5423","PAYLOAD","U","23021AU","2023-11-01 08:07:23","848608","14.98351803","0.0003123","70","171.1222","275.3803","84.7","0","999","4026","-0.00039734","-0.00004833","0","4064517","0 STARLINK-5423","1 55670U 23021AU  23305.33847047 -.00004833  00000-0 -39734-3 0  9999","2 55670  70.0000 171.1222 0003123 275.3803  84.7000 14.98351803 40268","2023-021AU","55670","6950.125","96.106","574.161","569.820","0"
"GENERATED VIA SPACETRACK.ORG API","18 SPCS","49169","STARLINK-3046","PAYLOAD","U","21082AR","2023-11-01 08:48:17","190432","14.98353252","0.0002516","70","281.1213","271.3729","88.7142","0","999","11896","-0.0000025776","-0.00000124","0","4064501","0 STARLINK-3046","1 49169U 21082AR  23305.36686563 -.00000124  00000-0 -25776-5 0  9999","2 49169  70.0000 281.1213 0002516 271.3729  88.7142 14.98353252118968","2021-082AR","49169","6950.121","96.106","573.735","570.237","0"
"GENERATED VIA SPACETRACK.ORG API","18 SPCS","55934","STARLINK-5927","PAYLOAD","U","23037W","2023-11-01 08:51:42","263424","14.98327126","0.0002491","70","291.0504","272.0605","88.0269","0","999","3526","0.00012978","0.00001456","0","4064888","0 STARLINK-5927","1 55934U 23037W   23305.36923916  .00001456  00000-0  12978-3 0  9999","2 55934  70.0000 291.0504 0002491 272.0605  88.0269 14.98327126 35266","2023-037W","55934","6950.202","96.107","573.798","570.335","0"
"GENERATED VIA SPACETRACK.ORG API","18 SPCS","55939","STARLINK-5918","PAYLOAD","U","23037AB","2023-11-01 08:57:28","592640","14.98330461","0.0002812","70","291.0643","267.4379","92.6458","0","999","3560","0.000040503","0.0000039","0","4064551","0 STARLINK-5918","1 55939U 23037AB  23305.37324760  .00000390  00000-0  40503-4 0  9999","2 55939  70.0000 291.0643 0002812 267.4379  92.6458 14.98330461 35603","2023-037AB","55939","6950.191","96.107","574.011","570.102","0"
"GENERATED VIA SPACETRACK.ORG API","18 SPCS","55939","STARLINK-5918","PAYLOAD","U","23037AB","2023-11-01 08:57:28","592640","14.98330461","0.0002812","70","291.0643","267.4379","92.6458","0","999","3526","0.000040503","0.0000039","0","4064888","0 STARLINK-5918","1 55939U 23037AB  23305.37324760  .00000390  00000-0  40503-4 0  9999","2 55939  70.0000 291.0643 0002812 267.4379  92.6458 14.98330461 35265","2023-037AB","55939","6950.191","96.107","574.011","570.102","0"
"GENERATED VIA SPACETRACK.ORG API","18 SPCS","55660","STARLINK-5467","PAYLOAD","U","23021AJ","2023-11-01 09:07:45","7392","14.98331365","0.0002923","70","171.2713","258.4455","101.6376","0","999","4056","-0.000018281","-0.00000311","0","4064888","0 STARLINK-5467","1 55660U 23021AJ  23305.38038203 -.00000311  00000-0 -18281-4 0  9991","2 55660  70.0000 171.2713 0002923 258.4455 101.6376 14.98331365 40564","2023-021AJ","55660","6950.189","96.107","574.085","570.022","0"
"GENERATED VIA SPACETRACK.ORG API","18 SPCS","55305","STARLINK-5316","PAYLOAD","U","23010AN","2023-11-01 09:59:16","197216","14.98309559","0.0002695","70","31.1828","278.3107","81.7747","0","999","4424","-0.000085812","-0.00001116","0","4064623","0 STARLINK-5316","1 55305U 23010AN  23305.41615969 -.00001116  00000-0 -85812-4 0  9997","2 55305  70.0000  31.1828 0002695 278.3107  81.7747 14.98309559 44241","2023-010AN","55305","6950.256","96.108","573.994","570.248","0"
"GENERATED VIA SPACETRACK.ORG API","18 SPCS","55923","STARLINK-5854","PAYLOAD","U","23037K","2023-11-01 11:09:59","657184","14.98319502","0.0002196","70","310.8677","262.9722","97.1188","0","999","3512","-0.000074427","-0.00000981","0","4064373","0 STARLINK-5854","1 55923U 23037K   23305.46527381 -.00000981  00000-0 -74427-4 0  9996","2 55923  70.0000 310.8677 0002196 262.9722  97.1188 14.98319502 35120","2023-037K","55923","6950.225","96.108","573.617","570.564","0"
"GENERATED VIA SPACETRACK.ORG API","18 SPCS","55923","STARLINK-5854","PAYLOAD","U","23037K","2023-11-01 11:09:59","657184","14.98319502","0.0002196","70","310.8677","262.9722","97.1188","0","999","3478","-0.000074427","-0.00000981","0","4064888","0 STARLINK-5854","1 55923U 23037K   23305.46527381 -.00000981  00000-0 -74427-4 0  9996","2 55923  70.0000 310.8677 0002196 262.9722  97.1188 14.98319502 34781","2023-037K","55923","6950.225","96.108","573.617","570.564","0"
"GENERATED VIA SPACETRACK.ORG API","18 SPCS","56780","STARLINK-5963","PAYLOAD","U","23078P","2023-11-01 12:00:00","999648","14.98329004","0.0003084","70","350.965","273.3311","226.4841","0","999","2424","0.00042946","0.00005035","0","4064328","0 STARLINK-5963","1 56780U 23078P   23305.50001157  .00005035  00000-0  42946-3 0  9999","2 56780  70.0000 350.9650 0003084 273.3311 226.4841 14.98329004 24247","2023-078P","56780","6950.196","96.107","574.204","569.918","0"
"GENERATED VIA SPACETRACK.ORG API","18 SPCS","55275","STARLINK-5260","PAYLOAD","U","23010G","2023-11-01 12:59:28","434912","14.98362293","0.0001887","70","30.8167","242.0692","118.0276","0","999","4426","0.000012129","0.00000052","0","4064623","0 STARLINK-5260","1 55275U 23010G   23305.54130133  .00000052  00000-0  12129-4 0  9999","2 55275  70.0000  30.8167 0001887 242.0692 118.0276 14.98362293 44265","2023-010G","55275","6950.093","96.105","573.270","570.647","0"
"GENERATED VIA SPACETRACK.ORG API","18 SPCS","55662","STARLINK-5479","PAYLOAD","U","23021AL","2023-11-01 13:55:55","193088","14.9832609","0.0002811","70","170.7765","267.9383","92.1454","0","999","4059","0.000056159","0.00000577","0","4064888","0 STARLINK-5479","1 55662U 23021AL  23305.58049992  .00000577  00000-0  56159-4 0  9990","2 55662  70.0000 170.7765 0002811 267.9383  92.1454 14.98326090 40591","2023-021AL","55662","6950.205","96.107","574.024","570.116","0"
"GENERATED VIA SPACETRACK.ORG API","18 SPCS","55289","STARLINK-5320","PAYLOAD","U","23010W","2023-11-01 14:23:37","959360","14.98317189","0.0002687","70","30.6185","263.434","96.6513","0","999","4458","0.000077667","0.00000834","0","4064888","0 STARLINK-5320","1 55289U 23010W   23305.59974490  .00000834  00000-0  77667-4 0  9997","2 55289  70.0000  30.6185 0002687 263.4340  96.6513 14.98317189 44588","2023-010W","55289","6950.233","96.108","573.965","570.230","0"
"GENERATED VIA SPACETRACK.ORG API","18 SPCS","49142","STARLINK-3042","PAYLOAD","U","21082N","2023-11-01 14:24:26","351136","14.98329799","0.0002798","70","260.5212","270.4558","89.628","0","999","11828","0.00011754","0.0000131","0","4064888","0 STARLINK-3042","1 49142U 21082N   23305.60030499  .00001310  00000-0  11754-3 0  9993","2 49142  70.0000 260.5212 0002798 270.4558  89.6280 14.98329799118288","2021-082N","49142","6950.194","96.107","574.003","570.114","0"
"GENERATED VIA SPACETRACK.ORG API","18 SPCS","55413","STARLINK-5060","PAYLOAD","U","23014Y","2023-11-01 14:24:34","933248","14.98326993","0.0002976","70","90.3388","267.606","92.4758","0","999","4288","0.000042612","0.00000415","0","4064888","0 STARLINK-5060","1 55413U 23014Y   23305.60040432  .00000415  00000-0  42612-4 0  9999","2 55413  70.0000  90.3388 0002976 267.6060  92.4758 14.98326993 42880","2023-014Y","55413","6950.202","96.107","574.136","569.999","0"
"GENERATED VIA SPACETRACK.ORG API","18 SPCS","55422","STARLINK-5006","PAYLOAD","U","23014AH","2023-11-01 14:36:36","926208","14.98316592","0.000309","70","90.3624","268.9312","91.1493","0","999","4288","0.000035521","0.00000331","0","4064888","0 STARLINK-5006","1 55422U 23014AH  23305.60876072  .00000331  00000-0  35521-4 0  9994","2 55422  70.0000  90.3624 0003090 268.9312  91.1493 14.98316592 42881","2023-014AH","55422","6950.234","96.108","574.247","569.952","0"
"GENERATED VIA SPACETRACK.ORG API","18 SPCS","55414","STARLINK-5620","PAYLOAD","U","23014Z","2023-11-01 14:48:37","668960","14.98326889","0.0002997","70","90.3965","269.6462","90.4354","0","999","4288","0.000015392","0.00000091","0","4064888","0 STARLINK-5620","1 55414U 23014Z   23305.61710265  .00000091  00000-0  15392-4 0  9994","2 55414  70.0000  90.3965 0002997 269.6462  90.4354 14.98326889 42887","2023-014Z","55414","6950.203","96.107","574.150","569.985","0"
"GENERATED VIA SPACETRACK.ORG API","18 SPCS","56448","STARLINK-5990","PAYLOAD","U","23064A","2023-11-01 14:49:53","35680","14.98328322","0.0002805","70","150.5569","263.5848","96.4991","0","999","2656","0.000008157","0.00000004","0","4064888","0 STARLINK-5990","1 56448U 23064A   23305.61797495  .00000004  00000-0  81570-5 0  9993","2 56448  70.0000 150.5569 0002805 263.5848  96.4991 14.98328322 26567","2023-064A","56448","6950.198","96.107","574.013","570.114","0"
